STARLINK-30850          
1 58247U 23171T   24311.37503880 -.00000491  00000+0 -21251-4 0  9995
2 58247  43.0031  59.0705 0001205 258.9956 101.0750 15.02530709 56138
STARLINK-30823          
1 58248U 23171U   24310.58397910 -.00000707  00000+0 -37287-4 0  9999
2 58248  43.0048  63.4550 0001715 277.6091  82.4557 15.02528571 56151
STARLINK-30873          
1 58249U 23171V   24311.31855896  .00001923  00000+0  15743-3 0  9995
2 58249  43.0033  59.5047 0001129 260.3957  99.6758 15.02532370 56281
STARLINK-30808          
1 58250U 23171W   24311.01427722  .00000289  00000+0  36491-4 0  9995
2 58250  43.0024  63.2044 0001293 264.2951  95.7744 15.02529802 56212
STARLINK-30881          
1 58251U 23171X   24311.36516199  .00001739  00000+0  14375-3 0  9998
2 58251  43.0030  59.7686 0001260 263.3304  96.7395 15.02536973 56229
STARLINK-30883          
1 58252U 23171Y   24310.99615663 -.00002767  00000+0 -18984-3 0  9997
2 58252  43.0047  61.3788 0002048 260.2863  99.7748 15.02527678 56239
STARLINK-30907          
1 58352U 23177B   24310.55637700  .00000688  00000+0  66017-4 0  9991
2 58352  43.0024 129.7163 0001287 267.5143  92.5552 15.02532830 54649
STARLINK-30896          
1 58353U 23177C   24311.38475154  .00007998  00000+0  31528-3 0  9996
2 58353  42.9994  82.2530 0001400 255.4830 104.5866 15.25909199 55117
STARLINK-30832          
1 58354U 23177D   24310.91751277 -.00002484  00000+0 -16874-3 0  9992
2 58354  43.0012 127.2780 0001694 276.7517  83.3132 15.02555502 54547
STARLINK-30903          
1 58355U 23177E   24310.83005532  .00000527  00000+0  54113-4 0  9993
2 58355  43.0014 128.3434 0001392 264.0855  95.9828 15.02534219 54697
STARLINK-30905          
1 58356U 23177F   24310.81782407  .00008183  00000+0  61963-3 0  9991
2 58356  43.0027 128.2160 0001293 263.0475  97.0220 15.02565807 54645
STARLINK-30842          
1 58357U 23177G   24311.46377463  .00001487  00000+0  12511-3 0  9991
2 58357  43.0031 110.6881 0001441 254.2518 105.8166 15.02539404 54989
STARLINK-30858          
1 58358U 23177H   24311.22226091  .00002537  00000+0  20270-3 0  9994
2 58358  43.0024 126.1249 0002349 269.8645  90.1928 15.02557456 54757
STARLINK-30878          
1 58359U 23177J   24310.77899484  .00002598  00000+0  20731-3 0  9995
2 58359  43.0016 127.9566 0001239 267.9102  92.1599 15.02542241 54688
STARLINK-30897          
1 58360U 23177K   24311.22560533  .00012053  00000+0  90560-3 0  9992
2 58360  43.0017 126.1516 0001393 267.8372  92.2311 15.02544407 54764
STARLINK-30885          
1 58361U 23177L   24310.81674787  .00012431  00000+0  93356-3 0  9990
2 58361  43.0013 128.2439 0001465 288.0987  71.9696 15.02540255 54694
STARLINK-30890          
1 58362U 23177M   24310.54749369 -.00001194  00000+0 -73328-4 0  9994
2 58362  43.0007 129.6626 0001290 263.1201  96.9494 15.02532886 54582
STARLINK-30909          
1 58363U 23177N   24311.47707890  .00010065  00000+0  75907-3 0  9990
2 58363  43.0011 124.5967 0001089 267.6114  92.4604 15.02534618 54789
STARLINK-30904          
1 58364U 23177P   24311.21413738  .00001193  00000+0  10337-3 0  9996
2 58364  43.0055 124.3549 0000883 261.5468  98.5274 15.02530286 54763
STARLINK-30918          
1 58365U 23177Q   24311.20228874  .00000673  00000+0  64888-4 0  9994
2 58365  43.0020 125.9757 0001075 255.4819 104.5904 15.02530097 54746
STARLINK-30892          
1 58366U 23177R   24311.47152950  .00000501  00000+0  52147-4 0  9990
2 58366  43.0038 124.5542 0001396 272.7477  87.3205 15.02532494 54780
STARLINK-30891          
1 58367U 23177S   24310.93305900  .00000767  00000+0  71891-4 0  9997
2 58367  43.0021 127.3938 0001062 284.5681  75.5043 15.02522451 54546
STARLINK-30889          
1 58368U 23177T   24311.20117362  .00003628  00000+0  28350-3 0  9992
2 58368  43.0043 125.9664 0001314 285.8016  74.2681 15.02539646 54747
STARLINK-30870          
1 58369U 23177U   24311.19673271  .00000862  00000+0  78863-4 0  9999
2 58369  43.0013 125.9307 0001109 281.7520  78.3198 15.02537375 54741
STARLINK-30888          
1 58370U 23177V   24310.83560352  .00000392  00000+0  44090-4 0  9999
2 58370  43.0025 128.3689 0001865 268.1589  91.9039 15.02541610 54684
STARLINK-30859          
1 58371U 23177W   24310.82560538  .00001251  00000+0  10766-3 0  9992
2 58371  43.0017 128.2751 0002030 268.2251  91.8359 15.02533519 54680
STARLINK-30884          
1 58372U 23177X   24311.19118761  .00000845  00000+0  77593-4 0  9991
2 58372  43.0032 125.8861 0000968 268.8774  91.1958 15.02528859 54743
STARLINK-30852          
1 58373U 23177Y   24311.21893048  .00001100  00000+0  96465-4 0  9997
2 58373  43.0044 126.0660 0001324 270.8536  89.2155 15.02536694 54735
STARLINK-30911          
1 58374U 23178A   24311.42932147  .00002168  00000+0  75655-4 0  9999
2 58374  53.1601 109.9049 0000990 128.1815 231.9277 15.34239053 55119
STARLINK-30894          
1 58375U 23178B   24311.41998342  .00003449  00000+0  11368-3 0  9991
2 58375  53.1593 109.8564 0000468 106.8311 253.2742 15.34249630 55054
STARLINK-30910          
1 58376U 23178C   24311.41967587  .00000496  00000+0  25942-4 0  9992
2 58376  53.1575 109.8566 0001114 102.4903 257.6224 15.34223597 55120
STARLINK-30914          
1 58377U 23178D   24311.42899008  .00001129  00000+0  44748-4 0  9995
2 58377  53.1589 109.8946 0001081 111.4981 248.6136 15.34231759 55128
STARLINK-30920          
1 58378U 23178E   24310.75003389  .00028036  00000+0  84255-3 0  9992
2 58378  53.1567 113.5112 0001234  81.2844 278.8298 15.34221131 55019
STARLINK-30882          
1 58379U 23178F   24311.47582304  .00003929  00000+0  12804-3 0  9997
2 58379  53.1582 109.4953 0001075 109.7847 250.3271 15.34229181 55138
STARLINK-30915          
1 58380U 23178G   24311.47610628  .00003520  00000+0  97856-4 0  9998
2 58380  53.1614  25.0806 0001017  67.7930 292.3183 15.39648182 56183
STARLINK-30923          
1 58381U 23178H   24310.74028354 -.00001234  00000+0 -25582-4 0  9996
2 58381  53.1573 112.6755 0001130  72.6841 287.4285 15.34213493 54922
STARLINK-30927          
1 58382U 23178J   24311.17453738  .00001290  00000+0  55663-4 0  9996
2 58382  53.1617 110.4530 0000931 109.1125 250.9977 15.30193295 55060
STARLINK-30921          
1 58383U 23178K   24310.74496447  .00000522  00000+0  26721-4 0  9993
2 58383  53.1576 112.7516 0001051  55.2414 304.8687 15.34199960 54997
STARLINK-30825          
1 58384U 23178L   24311.16409221  .00008131  00000+0  25283-3 0  9990
2 58384  53.1573 111.0725 0000900  80.8803 279.2302 15.34233128 55071
STARLINK-30930          
1 58385U 23178M   24311.43365372  .00026924  00000+0  80862-3 0  9993
2 58385  53.1587 109.9321 0001413  82.7229 277.3934 15.34262545 54960
STARLINK-30929          
1 58386U 23178N   24310.67097785  .00003134  00000+0  11786-3 0  9996
2 58386  53.1591 112.7931 0001201  76.0331 284.0804 15.30212800 54988
STARLINK-30898          
1 58387U 23178P   24310.72681618  .00007334  00000+0  25953-3 0  9994
2 58387  53.1590 112.5106 0001133 106.3093 253.8032 15.30195606 55023
STARLINK-30913          
1 58388U 23178Q   24311.18696347  .00005923  00000+0  18725-3 0  9992
2 58388  53.1589 110.5316 0001433  85.8098 274.3068 15.34234738 55090
STARLINK-30938          
1 58389U 23178R   24311.44296761  .00001488  00000+0  55436-4 0  9991
2 58389  53.1591 109.9932 0001187  71.5747 288.5384 15.34242321 55128
STARLINK-30868          
1 58390U 23178S   24311.18729974  .00004171  00000+0  13529-3 0  9999
2 58390  53.1600 110.5343 0001908  79.7717 280.3501 15.34217500 55080
STARLINK-30916          
1 58391U 23178T   24311.43894045  .00003554  00000+0  13202-3 0  9992
2 58391  53.1608 109.1606 0001952  92.1410 267.9814 15.30214632 55136
STARLINK-30937          
1 58392U 23178U   24311.44209054  .00002399  00000+0  93046-4 0  9995
2 58392  53.1587 109.1890 0001588  79.6311 280.4868 15.30218814 55138
STARLINK-30939          
1 58393U 23178V   24311.47116393 -.00001532  00000+0 -34429-4 0  9992
2 58393  53.1583 109.4595 0001620  81.7309 278.3877 15.34226434 54965
STARLINK-30887          
1 58394U 23178W   24310.69875310  .00003432  00000+0  11330-3 0  9991
2 58394  53.1581 112.9961 0000810 114.6173 245.4913 15.34211588 54998
STARLINK-30934          
1 58395U 23178X   24311.16716400  .00003566  00000+0  13248-3 0  9997
2 58395  53.1604 110.4865 0001141 117.1835 242.9282 15.30198765 55025
STARLINK-30964          
1 58402U 23180A   24310.97817297  .00002786  00000+0  22120-3 0  9995
2 58402  43.0002 191.2560 0001826 277.9531  82.1104 15.02535731 54080
STARLINK-30844          
1 58403U 23180B   24310.96829863  .00003117  00000+0  24563-3 0  9999
2 58403  42.9983 192.0439 0001339 266.9842  93.0847 15.02543485 53981
STARLINK-30876          
1 58404U 23180C   24311.36383548  .00001759  00000+0  14521-3 0  9993
2 58404  43.0021 189.8487 0001594 274.8350  85.2310 15.02543030 54131
STARLINK-30952          
1 58405U 23180D   24310.96164348  .00003614  00000+0  28237-3 0  9995
2 58405  43.0002 191.9836 0001316 239.4938 120.5775 15.02544328 53974
STARLINK-30925          
1 58406U 23180E   24310.95830950  .00002170  00000+0  17567-3 0  9994
2 58406  43.0022 191.9622 0001132 258.7657 101.3059 15.02539972 53979
STARLINK-30954          
1 58407U 23180F   24310.37653974 -.00003813  00000+0 -26733-3 0  9992
2 58407  43.0024 194.4772 0001743 267.6698  92.3945 15.02534105 53985
STARLINK-30906          
1 58408U 23180G   24311.38045093  .00026070  00000+0  19355-2 0  9991
2 58408  43.0009 189.8061 0001357 268.9054  91.1633 15.02579703 53769
STARLINK-30940          
1 58409U 23180H   24310.25343157  .00003487  00000+0  14305-3 0  9997
2 58409  43.0019 145.9357 0001179 273.3973  86.6743 15.25915674 54559
STARLINK-30933          
1 58410U 23180J   24311.23330397  .00002308  00000+0  98063-4 0  9995
2 58410  43.0059 142.1014 0001472 277.0959  82.9725 15.25910388 54685
STARLINK-30919          
